{
  "type": "FeatureCollection",
  "features": [
    {
      "type": "Feature",
      "properties": {
        "norad_id": 41556,
        "name": "ZIYUAN 3-2 (ZY 3-2)",
        "group": "resource",
        "lat": -22.92612752502969,
        "lon": 63.64831914851225,
        "alt_km": 506.2910580885491,
        "timestamp": "2025-12-12T07:43:20.160924+00:00",
        "meta_object_name": "ZIYUAN 3-2 (ZY 3-2)",
        "meta_object_id": "2016-033A",
        "meta_epoch": "2025-12-11T23:55:54.020928",
        "meta_mean_motion": 15.21485317,
        "meta_eccentricity": 0.0012424,
        "meta_inclination": 97.4041,
        "meta_ra_of_asc_node": 60.1761,
        "meta_arg_of_pericenter": 251.8772,
        "meta_mean_anomaly": 108.1111,
        "meta_ephemeris_type": 0,
        "meta_classification_type": "U",
        "meta_norad_cat_id": 41556,
        "meta_element_set_no": 999,
        "meta_rev_at_epoch": 52952,
        "meta_bstar": 0.00046829796,
        "meta_mean_motion_dot": 0.00010491,
        "meta_mean_motion_ddot": 0,
        "tle_line1": "1 41556U 16033A   25345.99715302  .00010491  00000+0  46830-3 0  9997",
        "tle_line2": "2 41556  97.4041  60.1761 0012424 251.8772 108.1111 15.21485317529527"
      },
      "geometry": {
        "type": "Point",
        "coordinates": [
          63.64831914851225,
          -22.92612752502969
        ]
      }
    },
    {
      "type": "Feature",
      "properties": {
        "norad_id": 41599,
        "name": "CARTOSAT-2C",
        "group": "resource",
        "lat": -74.18051572096888,
        "lon": 71.1902083275216,
        "alt_km": 521.3004366205896,
        "timestamp": "2025-12-12T07:43:20.160934+00:00",
        "meta_object_name": "CARTOSAT-2C",
        "meta_object_id": "2016-040A",
        "meta_epoch": "2025-12-12T00:09:11.382336",
        "meta_mean_motion": 15.19285537,
        "meta_eccentricity": 0.00109671,
        "meta_inclination": 97.4768,
        "meta_ra_of_asc_node": 43.2638,
        "meta_arg_of_pericenter": 67.5537,
        "meta_mean_anomaly": 292.6858,
        "meta_ephemeris_type": 0,
        "meta_classification_type": "U",
        "meta_norad_cat_id": 41599,
        "meta_element_set_no": 999,
        "meta_rev_at_epoch": 52529,
        "meta_bstar": 0.00040440515,
        "meta_mean_motion_dot": 8.48e-05,
        "meta_mean_motion_ddot": 0,
        "tle_line1": "1 41599U 16040A   25346.00638174  .00008480  00000+0  40441-3 0  9993",
        "tle_line2": "2 41599  97.4768  43.2638 0010967  67.5537 292.6858 15.19285537525292"
      },
      "geometry": {
        "type": "Point",
        "coordinates": [
          71.1902083275216,
          -74.18051572096888
        ]
      }
    },
    {
      "type": "Feature",
      "properties": {
        "norad_id": 41601,
        "name": "SKYSAT-C1",
        "group": "resource",
        "lat": -40.44208860512918,
        "lon": 29.355478963990077,
        "alt_km": 473.78555605721067,
        "timestamp": "2025-12-12T07:43:20.160945+00:00",
        "meta_object_name": "SKYSAT-C1",
        "meta_object_id": "2016-040C",
        "meta_epoch": "2025-12-11T08:23:40.530624",
        "meta_mean_motion": 15.32550324,
        "meta_eccentricity": 0.00025282,
        "meta_inclination": 96.983,
        "meta_ra_of_asc_node": 22.4415,
        "meta_arg_of_pericenter": 19.7612,
        "meta_mean_anomaly": 340.3729,
        "meta_ephemeris_type": 0,
        "meta_classification_type": "U",
        "meta_norad_cat_id": 41601,
        "meta_element_set_no": 999,
        "meta_rev_at_epoch": 52906,
        "meta_bstar": 0.0005196648,
        "meta_mean_motion_dot": 0.00016279,
        "meta_mean_motion_ddot": 0,
        "tle_line1": "1 41601U 16040C   25345.34977466  .00016279  00000+0  51966-3 0  9992",
        "tle_line2": "2 41601  96.9830  22.4415 0002528  19.7612 340.3729 15.32550324529060"
      },
      "geometry": {
        "type": "Point",
        "coordinates": [
          29.355478963990077,
          -40.44208860512918
        ]
      }
    },
    {
      "type": "Feature",
      "properties": {
        "norad_id": 41603,
        "name": "LAPAN-A3",
        "group": "resource",
        "lat": 73.6679283138728,
        "lon": -170.7668120102337,
        "alt_km": 468.38180846313844,
        "timestamp": "2025-12-12T07:43:20.160956+00:00",
        "meta_object_name": "LAPAN-A3",
        "meta_object_id": "2016-040E",
        "meta_epoch": "2025-12-12T00:59:40.950816",
        "meta_mean_motion": 15.31541455,
        "meta_eccentricity": 0.0009744,
        "meta_inclination": 97.1433,
        "meta_ra_of_asc_node": 343.6231,
        "meta_arg_of_pericenter": 336.6524,
        "meta_mean_anomaly": 23.4275,
        "meta_ephemeris_type": 0,
        "meta_classification_type": "U",
        "meta_norad_cat_id": 41603,
        "meta_element_set_no": 999,
        "meta_rev_at_epoch": 52615,
        "meta_bstar": 0.00019617597,
        "meta_mean_motion_dot": 5.909e-05,
        "meta_mean_motion_ddot": 0,
        "tle_line1": "1 41603U 16040E   25346.04144619  .00005909  00000+0  19618-3 0  9994",
        "tle_line2": "2 41603  97.1433 343.6231 0009744 336.6524  23.4275 15.31541455526154"
      },
      "geometry": {
        "type": "Point",
        "coordinates": [
          -170.7668120102337,
          73.6679283138728
        ]
      }
    },
    {
      "type": "Feature",
      "properties": {
        "norad_id": 41604,
        "name": "BIROS",
        "group": "resource",
        "lat": -20.322218526757855,
        "lon": -164.89699926093286,
        "alt_km": 307.48543424551735,
        "timestamp": "2025-12-12T07:43:20.160966+00:00",
        "meta_object_name": "BIROS",
        "meta_object_id": "2016-040F",
        "meta_epoch": "2025-12-12T00:50:17.402496",
        "meta_mean_motion": 15.8941453,
        "meta_eccentricity": 0.00032982,
        "meta_inclination": 97.0701,
        "meta_ra_of_asc_node": 17.4393,
        "meta_arg_of_pericenter": 153.8275,
        "meta_mean_anomaly": 206.3166,
        "meta_ephemeris_type": 0,
        "meta_classification_type": "U",
        "meta_norad_cat_id": 41604,
        "meta_element_set_no": 999,
        "meta_rev_at_epoch": 52861,
        "meta_bstar": 0.0006781359,
        "meta_mean_motion_dot": 0.00195229,
        "meta_mean_motion_ddot": 1.5627027e-05,
        "tle_line1": "1 41604U 16040F   25346.03492364  .00195229  15627-4  67814-3 0  9999",
        "tle_line2": "2 41604  97.0701  17.4393 0003298 153.8275 206.3166 15.89414530528617"
      },
      "geometry": {
        "type": "Point",
        "coordinates": [
          -164.89699926093286,
          -20.322218526757855
        ]
      }
    },
    {
      "type": "Feature",
      "properties": {
        "norad_id": 41727,
        "name": "GAOFEN-3",
        "group": "resource",
        "lat": 15.78293854640217,
        "lon": -10.480873012368892,
        "alt_km": 751.1643682577869,
        "timestamp": "2025-12-12T07:43:20.160976+00:00",
        "meta_object_name": "GAOFEN-3",
        "meta_object_id": "2016-049A",
        "meta_epoch": "2025-12-12T00:59:17.534688",
        "meta_mean_motion": 14.42213698,
        "meta_eccentricity": 0.00014456,
        "meta_inclination": 98.4042,
        "meta_ra_of_asc_node": 351.6377,
        "meta_arg_of_pericenter": 62.5643,
        "meta_mean_anomaly": 297.5694,
        "meta_ephemeris_type": 0,
        "meta_classification_type": "U",
        "meta_norad_cat_id": 41727,
        "meta_element_set_no": 999,
        "meta_rev_at_epoch": 49167,
        "meta_bstar": 9.5140223e-05,
        "meta_mean_motion_dot": 2.7e-06,
        "meta_mean_motion_ddot": 0,
        "tle_line1": "1 41727U 16049A   25346.04117517  .00000270  00000+0  95140-4 0  9998",
        "tle_line2": "2 41727  98.4042 351.6377 0001445  62.5643 297.5694 14.42213698491671"
      },
      "geometry": {
        "type": "Point",
        "coordinates": [
          -10.480873012368892,
          15.78293854640217
        ]
      }
    },
    {
      "type": "Feature",
      "properties": {
        "norad_id": 41771,
        "name": "SKYSAT-C4",
        "group": "resource",
        "lat": -59.37548724119997,
        "lon": 179.6587557859897,
        "alt_km": 447.015410044055,
        "timestamp": "2025-12-12T07:43:20.160987+00:00",
        "meta_object_name": "SKYSAT-C4",
        "meta_object_id": "2016-058B",
        "meta_epoch": "2025-12-12T00:27:20.747232",
        "meta_mean_motion": 15.42215688,
        "meta_eccentricity": 0.00014662,
        "meta_inclination": 96.9379,
        "meta_ra_of_asc_node": 11.2413,
        "meta_arg_of_pericenter": 133.9929,
        "meta_mean_anomaly": 226.1441,
        "meta_ephemeris_type": 0,
        "meta_classification_type": "U",
        "meta_norad_cat_id": 41771,
        "meta_element_set_no": 999,
        "meta_rev_at_epoch": 51656,
        "meta_bstar": 0.00046676534,
        "meta_mean_motion_dot": 0.00019985,
        "meta_mean_motion_ddot": 0,
        "tle_line1": "1 41771U 16058B   25346.01899013  .00019985  00000+0  46677-3 0  9995",
        "tle_line2": "2 41771  96.9379  11.2413 0001466 133.9929 226.1441 15.42215688516565"
      },
      "geometry": {
        "type": "Point",
        "coordinates": [
          179.6587557859897,
          -59.37548724119997
        ]
      }
    }
  ]
}